STARLINK-1177
1 15078C 20006AL  21326.16770267  .00002324  00000-0  15572-3 0  3260
2 15078  53.0553 107.9881 0001586  85.8625 331.4170 15.06389561    19
